{
  "norad_id": 62099,
  "name": "STARLINK-11380 [DTC]",
  "history": [
    {
      "epoch": "2026-03-28T14:36:50.490144Z",
      "apogee_km": 357.7799442901478,
      "perigee_km": 353.9173301286437,
      "latitude_deg": 5.349751708972775e-06,
      "longitude_deg": -116.64798239008066,
      "height_km": 356.0664530108129,
      "semi_major_axis_km": 6733.9856372093955,
      "eccentricity": 0.0002868,
      "inclination_deg": 42.9997,
      "raan_deg": 288.5893,
      "arg_perigee_deg": 256.6949,
      "mean_anomaly_deg": 103.3599,
      "mean_motion_rev_day": 15.71066193
    }
  ]
}